TYVAK-182A              
1 48271U 21034D   26133.77978419  .00003940  00000+0  27565-3 0  9992
2 48271  97.5746 193.2992 0007304  90.6555 269.5509 15.05824532274656
CSS (TIANHE)            
1 48274U 21035A   26133.47815923  .00012315  00000+0  13972-3 0  9996
2 48274  41.4670 173.0841 0004121 296.9881  63.0537 15.62173368287748
TYVAK-0130              
1 48606U 21041BF  26133.55960046  .00004773  00000+0  19003-3 0  9998
2 48606  52.9933 186.8358 0011135  63.9436 296.2707 15.27073027275098
HAIYANG-2D              
1 48621U 21043A   26133.95246646 -.00000318  00000+0 -21453-3 0  9999
2 48621  66.0005  29.9329 0011396 273.1984  86.7780 13.83371793251816
TYVAK-0173              
1 48892U 21059P   26133.48871730  .00001115  00000+0  14521-3 0  9994
2 48892  96.0084 218.4721 0010420 139.1139 221.0863 14.81768237263100
MANDRAKE 2 ABLE         
1 48907U 21059AE  26133.92286144  .00015329  00000+0  24213-3 0  9990
2 48907  97.7045 321.1332 0006248 114.6688 245.5216 15.53578953271805
MANDRAKE 2 BAKER        
1 48908U 21059AF  26133.50117332  .00017871  00000+0  24178-3 0  9991
2 48908  97.7021 323.3203 0004884 113.6266 246.5502 15.57779611271892
PACE-1                  
1 48909U 21059AG  26133.50736114  .00051245  00000+0  35268-3 0  9992
2 48909  97.6799 327.8918 0002882  98.3452 261.8138 15.74499177272338
YAM-3                   
1 48915U 21059AN  26133.48715694  .00007452  00000+0  14561-3 0  9990
2 48915  97.6993 318.1988 0006609 116.5392 243.6535 15.47766082271620
FARADAY_PHOENIX         
1 48924U 21059AX  26133.50884676  .00069299  00000+0  55824-3 0  9994
2 48924  97.6855 327.9095 0005121 109.3288 250.8528 15.70692043272204
DEMO8 (TENZING)         
1 48951U 21059CA  26133.47602373  .00012751  00000+0  20114-3 0  9997
2 48951  97.7043 324.2894 0008280 111.0792 249.1346 15.53645982271917
NAPA-2                  
1 48963U 21059CN  26133.92973988  .00131479  00000+0  55223-3 0  9991
2 48963  97.6770 328.6044 0002130 122.5534 237.5942 15.85176438272363
FENGYUN 3E              
1 49008U 21062A   26133.95472417 -.00000429  00000+0 -18135-3 0  9993
2 49008  98.7503 137.7441 0001812 145.5576 214.5718 14.19899828251721
ISS (NAUKA)             
1 49044U 21066A   26133.42450845  .00004975  00000+0  97698-4 0  9990
2 49044  51.6312 112.1826 0007529  54.1813 305.9874 15.49204198566508
STARLINK-3100           
1 49144U 21082Q   26133.39182191  .00002338  00000+0  20352-3 0  9994
2 49144  69.9986 131.3091 0003879 265.6454  94.4262 14.98353340255670
CUTE                    
1 49263U 21088D   26133.22361486  .00124740  00000+0  71034-3 0  9995
2 49263  97.4192 229.5484 0001685 271.3209  88.7865 15.78597278257012
2021-091B               
1 49316U 21091B   26133.99059848  .00002107  00000+0  10561-3 0  9998
2 49316  97.4483 322.0909 0013861 153.5912 206.6031 15.18372360253790
SDGSAT 1                
1 49387U 21100A   26133.92881023  .00001776  00000+0  86091-4 0  9991
2 49387  97.2667 182.1471 0009555  59.9539 300.2643 15.19744490250715
TEIKYOSAT-4 (OORURI)    
1 49396U 21102B   26133.51643555  .00001125  00000+0  74141-4 0  9995
2 49396  97.3698 164.3465 0013487  57.3904 302.8625 15.09379418247494
Z-SAT                   
1 49399U 21102E   26133.98923390  .00000960  00000+0  50323-4 0  9999
2 49399  97.3362 170.3524 0016946  13.1683 346.9990 15.17989896248250
HIBARI                  
1 49400U 21102F   26133.37354982  .00006232  00000+0  21029-3 0  9998
2 49400  97.3271 179.6880 0010369 331.6924  28.3752 15.31007887248869
KOSEN-1                 
1 49402U 21102H   26133.85990140  .00004911  00000+0  19141-3 0  9999
2 49402  97.3217 176.6917 0012681 335.8232  24.2410 15.26345575248786
GLOBAL-14               
1 49469U 21106A   26133.41316452  .00013927  00000+0  25585-3 0  9992
2 49469  42.0032 137.4611 0014356 146.9488 213.2255 15.48911628252731
GAOFEN-3 02             
1 49495U 21109A   26133.98429124 -.00000173  00000+0 -39460-4 0  9996
2 49495  98.4102 142.5660 0004021  90.3812 269.7839 14.42211788235384
GLOBAL-12               
1 49772U 21115BA  26133.50452420  .00018935  00000+0  31965-3 0  9998
2 49772  53.1952 211.0391 0002253 330.0254  30.0627 15.51695674250512
GLOBAL-13               
1 49773U 21115BB  26133.51957067  .00012544  00000+0  27217-3 0  9992
2 49773  53.1973 219.2174 0003266  27.8341 332.2841 15.44797267250404
GLOBAL-17               
1 49949U 21120A   26133.70997526  .00018084  00000+0  31241-3 0  9995
2 49949  41.9954 254.4491 0012934   5.7087 354.3902 15.50516093249549
GLOBAL-16               
1 49950U 21120B   26133.74356992  .00016552  00000+0  30659-3 0  9997
2 49950  41.9959 257.3667 0011181 355.3788   4.6950 15.48608077249503
XW-3 (CAS-9)            
1 50466U 21131B   26133.96936122  .00000093  00000+0  42460-4 0  9993
2 50466  98.4956 226.5477 0003883 183.4673 176.6489 14.41322326230184
